[{"OBJECT_NAME":"GAOFEN-9 02","OBJECT_ID":"2020-034B","EPOCH":"2026-03-10T00:01:23.433024","MEAN_MOTION":15.24736529,"ECCENTRICITY":0.00138652,"INCLINATION":97.5615,"RA_OF_ASC_NODE":225.1997,"ARG_OF_PERICENTER":60.5372,"MEAN_ANOMALY":299.7247,"EPHEMERIS_TYPE":0,"CLASSIFICATION_TYPE":"U","NORAD_CAT_ID":45625,"ELEMENT_SET_NO":999,"REV_AT_EPOCH":32104,"BSTAR":0.00036092627,"MEAN_MOTION_DOT":8.888e-5,"MEAN_MOTION_DDOT":0},{"OBJECT_NAME":"STARLINK-30530","OBJECT_ID":"2023-153Q","EPOCH":"2026-03-09T22:00:01.999584","MEAN_MOTION":15.26717404,"ECCENTRICITY":0.00015105,"INCLINATION":43.0017,"RA_OF_ASC_NODE":65.4834,"ARG_OF_PERICENTER":261.3491,"MEAN_ANOMALY":123.9702,"EPHEMERIS_TYPE":0,"CLASSIFICATION_TYPE":"U","NORAD_CAT_ID":58005,"ELEMENT_SET_NO":999,"REV_AT_EPOCH":567,"BSTAR":0.0018254244,"MEAN_MOTION_DOT":0.00048997,"MEAN_MOTION_DDOT":0}]
